start=new Date('2021-10-08T00:00:00.000Z').valueOf();
sats=[{"ECCENTRICITY":"0.00011220","MEAN_ANOMALY":"274.7821","OBJECT_NAME":"STARLINK-2178","OBJECT_ID":"2021-017AQ","APOAPSIS":"547.982","ARG_OF_PERICENTER":"85.3296","TLE_LINE1":"1 47760U 21017AQ  21280.65654674  .00001252  00000-0  10293-3 0  9999","REF_FRAME":"TEME","FILE":"3150302","DECAY_DATE":null,"MEAN_MOTION_DOT":"0.00001252","MEAN_ELEMENT_THEORY":"SGP4","CLASSIFICATION_TYPE":"U","LAUNCH_DATE":"2021-03-04","EPOCH":"2021-10-07T15:45:25.638336","MEAN_MOTION_DDOT":"0.0000000000000","REV_AT_EPOCH":"3434","TIME_SYSTEM":"UTC","MEAN_MOTION":"15.06402722","CENTER_NAME":"EARTH","TLE_LINE2":"2 47760  53.0546 267.2581 0001122  85.3296 274.7821 15.06402722 34343","ELEMENT_SET_NO":"999","PERIOD":"95.592","PERIAPSIS":"546.428","SEMIMAJOR_AXIS":"6925.340","INCLINATION":"53.0546","SITE":"AFETR","RCS_SIZE":"LARGE","RA_OF_ASC_NODE":"267.2581","OBJECT_TYPE":"PAYLOAD","NORAD_CAT_ID":"47760","BSTAR":"0.00010293000000","COUNTRY_CODE":"US","GP_ID":"186512600","EPHEMERIS_TYPE":"0"},{"TLE_LINE1":"1 47761U 21017AR  21280.35522972  .00001740  00000-0  13565-3 0  9999","ARG_OF_PERICENTER":"73.4483","MEAN_MOTION_DOT":"0.00001740","DECAY_DATE":null,"FILE":"3149666","REF_FRAME":"TEME","CLASSIFICATION_TYPE":"U","LAUNCH_DATE":"2021-03-04","MEAN_ELEMENT_THEORY":"SGP4","REV_AT_EPOCH":"3378","TIME_SYSTEM":"UTC","EPOCH":"2021-10-07T08:31:31.847808","MEAN_MOTION_DDOT":"0.0000000000000","MEAN_ANOMALY":"286.6666","ECCENTRICITY":"0.00014600","OBJECT_NAME":"STARLINK-2179","OBJECT_ID":"2021-017AR","APOAPSIS":"548.220","SITE":"AFETR","NORAD_CAT_ID":"47761","OBJECT_TYPE":"PAYLOAD","RA_OF_ASC_NODE":"258.6537","RCS_SIZE":"LARGE","BSTAR":"0.00013565000000","GP_ID":"186474507","EPHEMERIS_TYPE":"0","COUNTRY_CODE":"US","MEAN_MOTION":"15.06401494","TLE_LINE2":"2 47761  53.0541 258.6537 0001460  73.4483 286.6666 15.06401494 33786","CENTER_NAME":"EARTH","PERIAPSIS":"546.198","PERIOD":"95.592","ELEMENT_SET_NO":"999","INCLINATION":"53.0541","SEMIMAJOR_AXIS":"6925.344"},{"GP_ID":"186511116","EPHEMERIS_TYPE":"0","COUNTRY_CODE":"US","BSTAR":"0.00012238000000","NORAD_CAT_ID":"47762","OBJECT_TYPE":"PAYLOAD","RA_OF_ASC_NODE":"272.0502","RCS_SIZE":"LARGE","SITE":"AFETR","INCLINATION":"53.0559","SEMIMAJOR_AXIS":"6925.363","PERIAPSIS":"546.337","PERIOD":"95.592","ELEMENT_SET_NO":"999","TLE_LINE2":"2 47762  53.0559 272.0502 0001287  72.6837 287.4293 15.06395301 34278","CENTER_NAME":"EARTH","MEAN_MOTION":"15.06395301","TIME_SYSTEM":"UTC","REV_AT_EPOCH":"3427","EPOCH":"2021-10-07T17:05:41.705664","MEAN_MOTION_DDOT":"0.0000000000000","CLASSIFICATION_TYPE":"U","LAUNCH_DATE":"2021-03-04","MEAN_ELEMENT_THEORY":"SGP4","MEAN_MOTION_DOT":"0.00001542","DECAY_DATE":null,"REF_FRAME":"TEME","FILE":"3150302","TLE_LINE1":"1 47762U 21017AS  21280.71228826  .00001542  00000-0  12238-3 0  9997","ARG_OF_PERICENTER":"72.6837","APOAPSIS":"548.119","OBJECT_ID":"2021-017AS","OBJECT_NAME":"STARLINK-2180","MEAN_ANOMALY":"287.4293","ECCENTRICITY":"0.00012870"},{"MEAN_ELEMENT_THEORY":"SGP4","CLASSIFICATION_TYPE":"U","LAUNCH_DATE":"2021-03-04","MEAN_MOTION_DDOT":"0.0000000000000","EPOCH":"2021-10-07T15:54:03.219264","TIME_SYSTEM":"UTC","REV_AT_EPOCH":"3438","ARG_OF_PERICENTER":"68.7704","TLE_LINE1":"1 47763U 21017AT  21280.66253726  .00001645  00000-0  12927-3 0  9998","FILE":"3150302","REF_FRAME":"TEME","MEAN_MOTION_DOT":"0.00001645","DECAY_DATE":null,"OBJECT_ID":"2021-017AT","APOAPSIS":"548.127","ECCENTRICITY":"0.00013280","MEAN_ANOMALY":"291.3427","OBJECT_NAME":"STARLINK-2181","BSTAR":"0.00012927000000","COUNTRY_CODE":"US","EPHEMERIS_TYPE":"0","GP_ID":"186512374","SITE":"AFETR","RCS_SIZE":"LARGE","RA_OF_ASC_NODE":"262.1606","NORAD_CAT_ID":"47763","OBJECT_TYPE":"PAYLOAD","ELEMENT_SET_NO":"999","PERIOD":"95.592","PERIAPSIS":"546.288","SEMIMAJOR_AXIS":"6925.342","INCLINATION":"53.0549","MEAN_MOTION":"15.06401986","CENTER_NAME":"EARTH","TLE_LINE2":"2 47763  53.0549 262.1606 0001328  68.7704 291.3427 15.06401986 34380"},{"SITE":"AFETR","OBJECT_TYPE":"PAYLOAD","NORAD_CAT_ID":"47764","RA_OF_ASC_NODE":"272.1025","RCS_SIZE":"LARGE","BSTAR":"0.00013602000000","EPHEMERIS_TYPE":"0","GP_ID":"186512100","COUNTRY_CODE":"US","MEAN_MOTION":"15.06394655","TLE_LINE2":"2 47764  53.0561 272.1025 0001137  67.3991 292.7119 15.06394655 34301","CENTER_NAME":"EARTH","PERIAPSIS":"546.443","PERIOD":"95.592","ELEMENT_SET_NO":"999","INCLINATION":"53.0561","SEMIMAJOR_AXIS":"6925.365","TLE_LINE1":"1 47764U 21017AU  21280.69848809  .00001745  00000-0  13602-3 0  9996","ARG_OF_PERICENTER":"67.3991","DECAY_DATE":null,"MEAN_MOTION_DOT":"0.00001745","FILE":"3150302","REF_FRAME":"TEME","CLASSIFICATION_TYPE":"U","LAUNCH_DATE":"2021-03-04","MEAN_ELEMENT_THEORY":"SGP4","REV_AT_EPOCH":"3430","TIME_SYSTEM":"UTC","MEAN_MOTION_DDOT":"0.0000000000000","EPOCH":"2021-10-07T16:45:49.370976","MEAN_ANOMALY":"292.7119","ECCENTRICITY":"0.00011370","OBJECT_NAME":"STARLINK-2182","OBJECT_ID":"2021-017AU","APOAPSIS":"548.017"},{"OBJECT_ID":"2021-017AV","APOAPSIS":"548.133","ECCENTRICITY":"0.00013180","MEAN_ANOMALY":"294.4116","OBJECT_NAME":"STARLINK-2183","MEAN_ELEMENT_THEORY":"SGP4","LAUNCH_DATE":"2021-03-04","CLASSIFICATION_TYPE":"U","EPOCH":"2021-10-07T09:38:31.949952","MEAN_MOTION_DDOT":"0.0000000000000","REV_AT_EPOCH":"3386","TIME_SYSTEM":"UTC","TLE_LINE1":"1 47765U 21017AV  21280.40175868 -.00000279  00000-0  15492-6 0  9998","ARG_OF_PERICENTER":"65.7010","REF_FRAME":"TEME","FILE":"3149670","DECAY_DATE":null,"MEAN_MOTION_DOT":"-0.00000279","ELEMENT_SET_NO":"999","PERIAPSIS":"546.308","PERIOD":"95.592","SEMIMAJOR_AXIS":"6925.355","INCLINATION":"53.0551","MEAN_MOTION":"15.06397736","CENTER_NAME":"EARTH","TLE_LINE2":"2 47765  53.0551 253.4263 0001318  65.7010 294.4116 15.06397736 33861","BSTAR":"0.00000015492000","COUNTRY_CODE":"US","EPHEMERIS_TYPE":"0","GP_ID":"186474587","SITE":"AFETR","RA_OF_ASC_NODE":"253.4263","RCS_SIZE":"LARGE","OBJECT_TYPE":"PAYLOAD","NORAD_CAT_ID":"47765"},{"SITE":"AFETR","RA_OF_ASC_NODE":"272.0199","RCS_SIZE":"LARGE","NORAD_CAT_ID":"47766","OBJECT_TYPE":"PAYLOAD","BSTAR":"0.00012678000000","COUNTRY_CODE":"US","GP_ID":"186511617","EPHEMERIS_TYPE":"0","MEAN_MOTION":"15.06400952","CENTER_NAME":"EARTH","TLE_LINE2":"2 47766  53.0553 272.0199 0001375  75.1237 284.9904 15.06400952 34245","ELEMENT_SET_NO":"999","PERIAPSIS":"546.258","PERIOD":"95.592","SEMIMAJOR_AXIS":"6925.346","INCLINATION":"53.0553","TLE_LINE1":"1 47766U 21017AW  21280.71691568  .00001607  00000-0  12678-3 0  9998","ARG_OF_PERICENTER":"75.1237","REF_FRAME":"TEME","FILE":"3150302","MEAN_MOTION_DOT":"0.00001607","DECAY_DATE":null,"MEAN_ELEMENT_THEORY":"SGP4","CLASSIFICATION_TYPE":"U","LAUNCH_DATE":"2021-03-04","MEAN_MOTION_DDOT":"0.0000000000000","EPOCH":"2021-10-07T17:12:21.514752","TIME_SYSTEM":"UTC","REV_AT_EPOCH":"3424","ECCENTRICITY":"0.00013750","MEAN_ANOMALY":"284.9904","OBJECT_NAME":"STARLINK-2184","OBJECT_ID":"2021-017AW","APOAPSIS":"548.163"},{"MEAN_MOTION_DOT":"-0.00000775","DECAY_DATE":null,"FILE":"3150302","REF_FRAME":"TEME","ARG_OF_PERICENTER":"81.1273","TLE_LINE1":"1 47767U 21017AX  21280.67590588 -.00000775  00000-0 -33169-4 0  9990","REV_AT_EPOCH":"3451","TIME_SYSTEM":"UTC","MEAN_MOTION_DDOT":"0.0000000000000","EPOCH":"2021-10-07T16:13:18.268032","LAUNCH_DATE":"2021-03-04","CLASSIFICATION_TYPE":"U","MEAN_ELEMENT_THEORY":"SGP4","OBJECT_NAME":"STARLINK-2185","MEAN_ANOMALY":"278.9887","ECCENTRICITY":"0.00015110","APOAPSIS":"548.285","OBJECT_ID":"2021-017AX","NORAD_CAT_ID":"47767","OBJECT_TYPE":"PAYLOAD","RCS_SIZE":"LARGE","RA_OF_ASC_NODE":"257.2035","SITE":"AFETR","GP_ID":"186511874","EPHEMERIS_TYPE":"0","COUNTRY_CODE":"US","BSTAR":"-0.00003316900000","TLE_LINE2":"2 47767  53.0550 257.2035 0001511  81.1273 278.9887 15.06391850 34515","CENTER_NAME":"EARTH","MEAN_MOTION":"15.06391850","INCLINATION":"53.0550","SEMIMAJOR_AXIS":"6925.374","PERIOD":"95.593","PERIAPSIS":"546.192","ELEMENT_SET_NO":"999"},{"COUNTRY_CODE":"US","EPHEMERIS_TYPE":"0","GP_ID":"186512601","BSTAR":"0.00000112190000","RA_OF_ASC_NODE":"272.2030","RCS_SIZE":"LARGE","NORAD_CAT_ID":"47768","OBJECT_TYPE":"PAYLOAD","SITE":"AFETR","SEMIMAJOR_AXIS":"6925.357","INCLINATION":"53.0555","ELEMENT_SET_NO":"999","PERIAPSIS":"546.202","PERIOD":"95.592","CENTER_NAME":"EARTH","TLE_LINE2":"2 47768  53.0555 272.2030 0001472  70.2061 289.9086 15.06397336 34274","MEAN_MOTION":"15.06397336","MEAN_MOTION_DDOT":"0.0000000000000","EPOCH":"2021-10-07T16:17:54.392064","REV_AT_EPOCH":"3427","TIME_SYSTEM":"UTC","MEAN_ELEMENT_THEORY":"SGP4","CLASSIFICATION_TYPE":"U","LAUNCH_DATE":"2021-03-04","REF_FRAME":"TEME","FILE":"3150302","DECAY_DATE":null,"MEAN_MOTION_DOT":"-0.00000265","TLE_LINE1":"1 47768U 21017AY  21280.67910176 -.00000265  00000-0  11219-5 0  9996","ARG_OF_PERICENTER":"70.2061","APOAPSIS":"548.241","OBJECT_ID":"2021-017AY","OBJECT_NAME":"STARLINK-2189","ECCENTRICITY":"0.00014720","MEAN_ANOMALY":"289.9086"},{"ELEMENT_SET_NO":"999","PERIOD":"95.592","PERIAPSIS":"546.028","SEMIMAJOR_AXIS":"6925.334","INCLINATION":"53.0500","MEAN_MOTION":"15.06404713","CENTER_NAME":"EARTH","TLE_LINE2":"2 47769  53.0500 237.5855 0001691  70.1366 289.9805 15.06404713 34776","BSTAR":"0.00030655000000","COUNTRY_CODE":"US","GP_ID":"186511374","EPHEMERIS_TYPE":"0","SITE":"AFETR","RCS_SIZE":"LARGE","RA_OF_ASC_NODE":"237.5855","OBJECT_TYPE":"PAYLOAD","NORAD_CAT_ID":"47769","OBJECT_ID":"2021-017AZ","APOAPSIS":"548.370","ECCENTRICITY":"0.00016910","MEAN_ANOMALY":"289.9805","OBJECT_NAME":"STARLINK-2192","MEAN_ELEMENT_THEORY":"SGP4","LAUNCH_DATE":"2021-03-04","CLASSIFICATION_TYPE":"U","MEAN_MOTION_DDOT":"0.0000000000000","EPOCH":"2021-10-07T14:13:55.042752","REV_AT_EPOCH":"3477","TIME_SYSTEM":"UTC","ARG_OF_PERICENTER":"70.1366","TLE_LINE1":"1 47769U 21017AZ  21280.59299818  .00004288  00000-0  30655-3 0  9992","FILE":"3150302","REF_FRAME":"TEME","DECAY_DATE":null,"MEAN_MOTION_DOT":"0.00004288"}];
